EUTELSAT 21B            
1 38992U 12062B   25281.78228890  .00000131  00000+0  00000+0 0  9997
2 38992   0.0753  18.5551 0002667 183.5270 118.7882  1.00270283 47302
EUTELSAT 70B            
1 39020U 12069A   25281.60785712 -.00000042  00000+0  00000+0 0  9991
2 39020   0.0662   6.8561 0004123 192.0548 107.9124  1.00271636 46982
EUTELSAT 117 WEST A     
1 39122U 13012A   25281.61236499 -.00000011  00000+0  00000+0 0  9993
2 39122   0.0529  62.1380 0002771 140.5089 278.5086  1.00271729 45913
EUTELSAT 7B             
1 39163U 13022A   25281.77942889  .00000049  00000+0  00000+0 0  9993
2 39163   0.0704   5.7320 0001252 305.5423 353.9921  1.00269872 45437
EXPRESS-AT1             
1 39612U 14010A   25281.78913560  .00000080  00000+0  00000+0 0  9990
2 39612   0.0188 224.6043 0000391 256.8921 236.2918  1.00270577 42294
EXPRESS-AT2             
1 39613U 14010B   25281.80577568 -.00000279  00000+0  00000+0 0  9999
2 39613   0.0123 243.1866 0000438 223.3572 341.0920  1.00272053 41979
EUTELSAT 3B             
1 39773U 14030A   25281.77864889  .00000021  00000+0  00000+0 0  9993
2 39773   0.0655  10.2936 0004563 184.4217 106.3599  1.00271642 41543
EUTELSAT 115 WEST B     
1 40425U 15010B   25281.61271166 -.00000024  00000+0  00000+0 0  9995
2 40425   0.0243  50.6026 0000367  51.2290  21.3557  1.00272486 38879
